{"type": "FeatureCollection", "features": [ {"type": "Feature", "properties": {"norad_id": 54234, "name": "NOAA 21 (JPSS-2)", "group": "weather", "lat": -79.53948622544186, "lon": -10.36410392241961, "alt_km": 834.5297614515302, "timestamp": "2025-12-22T22:44:20.594169+00:00", "meta": {"OBJECT_NAME": "NOAA 21 (JPSS-2)", "OBJECT_ID": "2022-150A", "EPOCH": "2025-12-22T12:59:07.580544", "MEAN_MOTION": 14.19526653, "ECCENTRICITY": 0.00017835, "INCLINATION": 98.7476, "RA_OF_ASC_NODE": 292.7275, "ARG_OF_PERICENTER": 18.3386, "MEAN_ANOMALY": 341.7854, "EPHEMERIS_TYPE": 0, "CLASSIFICATION_TYPE": "U", "NORAD_CAT_ID": 54234, "ELEMENT_SET_NO": 999, "REV_AT_EPOCH": 16148, "BSTAR": 4.909944e-05, "MEAN_MOTION_DOT": 6e-07, "MEAN_MOTION_DDOT": 0}, "tle": {"line1": "1 54234U 22150A   25356.54105996  .00000060  00000+0  49099-4 0  9998", "line2": "2 54234  98.7476 292.7275 0001783  18.3386 341.7854 14.19526653161487"}}, "geometry": {"type": "Point", "coordinates": [-10.36410392241961, -79.53948622544186]}}, {"type": "Feature", "properties": {"norad_id": 54743, "name": "METEOSAT-12 (MTG-I1)", "group": "weather", "lat": 0.5349302108072799, "lon": 72.50920845729046, "alt_km": 35792.57042095983, "timestamp": "2025-12-22T22:44:20.594181+00:00", "meta": {"OBJECT_NAME": "METEOSAT-12 (MTG-I1)", "OBJECT_ID": "2022-170C", "EPOCH": "2025-12-22T06:18:54.979776", "MEAN_MOTION": 1.00270732, "ECCENTRICITY": 0.00015211, "INCLINATION": 0.6966, "RA_OF_ASC_NODE": 25.1701, "ARG_OF_PERICENTER": 239.7344, "MEAN_ANOMALY": 280.5813, "EPHEMERIS_TYPE": 0, "CLASSIFICATION_TYPE": "U", "NORAD_CAT_ID": 54743, "ELEMENT_SET_NO": 999, "REV_AT_EPOCH": 1120, "BSTAR": 0, "MEAN_MOTION_DOT": 1.4e-07, "MEAN_MOTION_DDOT": 0}, "tle": {"line1": "1 54743U 22170C   25356.26313634  .00000014  00000+0  00000+0 0  9997", "line2": "2 54743   0.6966  25.1701 0001521 239.7344 280.5813  1.00270732 11202"}}, "geometry": {"type": "Point", "coordinates": [72.50920845729046, 0.5349302108072799]}}, {"type": "Feature", "properties": {"norad_id": 55973, "name": "TIANMU-1 03", "group": "weather", "lat": -19.428141583120986, "lon": 162.5532522318497, "alt_km": 446.1096374011031, "timestamp": "2025-12-22T22:44:20.594192+00:00", "meta": {"OBJECT_NAME": "TIANMU-1 03", "OBJECT_ID": "2023-039A", "EPOCH": "2025-12-22T15:01:57.655200", "MEAN_MOTION": 15.41196466, "ECCENTRICITY": 0.00039276, "INCLINATION": 97.511, "RA_OF_ASC_NODE": 159.5558, "ARG_OF_PERICENTER": 32.7494, "MEAN_ANOMALY": 327.3995, "EPHEMERIS_TYPE": 0, "CLASSIFICATION_TYPE": "U", "NORAD_CAT_ID": 55973, "ELEMENT_SET_NO": 999, "REV_AT_EPOCH": 15358, "BSTAR": 0.00038312942, "MEAN_MOTION_DOT": 0.0001583, "MEAN_MOTION_DDOT": 0}, "tle": {"line1": "1 55973U 23039A   25356.62636175  .00015830  00000+0  38313-3 0  9990", "line2": "2 55973  97.5110 159.5558 0003927  32.7494 327.3995 15.41196466153585"}}, "geometry": {"type": "Point", "coordinates": [162.5532522318497, -19.428141583120986]}}, {"type": "Feature", "properties": {"norad_id": 55974, "name": "TIANMU-1 04", "group": "weather", "lat": 71.40514385559788, "lon": 2.139888310087441, "alt_km": 434.2285752991602, "timestamp": "2025-12-22T22:44:20.594203+00:00", "meta": {"OBJECT_NAME": "TIANMU-1 04", "OBJECT_ID": "2023-039B", "EPOCH": "2025-12-22T19:09:39.508416", "MEAN_MOTION": 15.41544209, "ECCENTRICITY": 0.0004527, "INCLINATION": 97.5041, "RA_OF_ASC_NODE": 158.9196, "ARG_OF_PERICENTER": 25.7049, "MEAN_ANOMALY": 334.4422, "EPHEMERIS_TYPE": 0, "CLASSIFICATION_TYPE": "U", "NORAD_CAT_ID": 55974, "ELEMENT_SET_NO": 999, "REV_AT_EPOCH": 15361, "BSTAR": 0.00039688, "MEAN_MOTION_DOT": 0.00016595, "MEAN_MOTION_DDOT": 0}, "tle": {"line1": "1 55974U 23039B   25356.79837394  .00016595  00000+0  39688-3 0  9990", "line2": "2 55974  97.5041 158.9196 0004527  25.7049 334.4422 15.41544209153615"}}, "geometry": {"type": "Point", "coordinates": [2.139888310087441, 71.40514385559788]}}, {"type": "Feature", "properties": {"norad_id": 55975, "name": "TIANMU-1 05", "group": "weather", "lat": 54.34367036943829, "lon": -9.839974992121137, "alt_km": 436.84950217597816, "timestamp": "2025-12-22T22:44:20.594213+00:00", "meta": {"OBJECT_NAME": "TIANMU-1 05", "OBJECT_ID": "2023-039C", "EPOCH": "2025-12-22T14:24:28.522368", "MEAN_MOTION": 15.41152299, "ECCENTRICITY": 0.00040474, "INCLINATION": 97.5087, "RA_OF_ASC_NODE": 159.2089, "ARG_OF_PERICENTER": 51.5703, "MEAN_ANOMALY": 308.5906, "EPHEMERIS_TYPE": 0, "CLASSIFICATION_TYPE": "U", "NORAD_CAT_ID": 55975, "ELEMENT_SET_NO": 999, "REV_AT_EPOCH": 15356, "BSTAR": 0.00038491467, "MEAN_MOTION_DOT": 0.00015881, "MEAN_MOTION_DDOT": 0}, "tle": {"line1": "1 55975U 23039C   25356.60033012  .00015881  00000+0  38491-3 0  9994", "line2": "2 55975  97.5087 159.2089 0004047  51.5703 308.5906 15.41152299153569"}}, "geometry": {"type": "Point", "coordinates": [-9.839974992121137, 54.34367036943829]}}, {"type": "Feature", "properties": {"norad_id": 55976, "name": "TIANMU-1 06", "group": "weather", "lat": 79.82797589057135, "lon": 27.3676142889005, "alt_km": 432.2229537509611, "timestamp": "2025-12-22T22:44:20.594223+00:00", "meta": {"OBJECT_NAME": "TIANMU-1 06", "OBJECT_ID": "2023-039D", "EPOCH": "2025-12-22T19:12:18.309888", "MEAN_MOTION": 15.41595485, "ECCENTRICITY": 0.0004307, "INCLINATION": 97.5099, "RA_OF_ASC_NODE": 159.8877, "ARG_OF_PERICENTER": 44.9716, "MEAN_ANOMALY": 315.1879, "EPHEMERIS_TYPE": 0, "CLASSIFICATION_TYPE": "U", "NORAD_CAT_ID": 55976, "ELEMENT_SET_NO": 999, "REV_AT_EPOCH": 15361, "BSTAR": 0.00038987, "MEAN_MOTION_DOT": 0.00016327, "MEAN_MOTION_DDOT": 0}, "tle": {"line1": "1 55976U 23039D   25356.80021192  .00016327  00000+0  38987-3 0  9999", "line2": "2 55976  97.5099 159.8877 0004307  44.9716 315.1879 15.41595485153610"}}, "geometry": {"type": "Point", "coordinates": [27.3676142889005, 79.82797589057135]}}, {"type": "Feature", "properties": {"norad_id": 56232, "name": "FENGYUN 3G", "group": "weather", "lat": -3.8662722277571637, "lon": 171.49908539949746, "alt_km": 411.4038585170474, "timestamp": "2025-12-22T22:44:20.594233+00:00", "meta": {"OBJECT_NAME": "FENGYUN 3G", "OBJECT_ID": "2023-055A", "EPOCH": "2025-12-22T13:30:09.673344", "MEAN_MOTION": 15.5419902, "ECCENTRICITY": 0.0009299, "INCLINATION": 49.9921, "RA_OF_ASC_NODE": 176.742, "ARG_OF_PERICENTER": 192.777, "MEAN_ANOMALY": 167.2963, "EPHEMERIS_TYPE": 0, "CLASSIFICATION_TYPE": "U", "NORAD_CAT_ID": 56232, "ELEMENT_SET_NO": 999, "REV_AT_EPOCH": 15255, "BSTAR": 0.00048213619, "MEAN_MOTION_DOT": 0.00031749, "MEAN_MOTION_DDOT": 0}, "tle": {"line1": "1 56232U 23055A   25356.56261196  .00031749  00000+0  48214-3 0  9995", "line2": "2 56232  49.9921 176.7420 0009299 192.7770 167.2963 15.54199020152551"}}, "geometry": {"type": "Point", "coordinates": [171.49908539949746, -3.8662722277571637]}}, {"type": "Feature", "properties": {"norad_id": 57166, "name": "METEOR-M2 3", "group": "weather", "lat": -12.519686262463052, "lon": 52.241853301112116, "alt_km": 813.7774062558119, "timestamp": "2025-12-22T22:44:20.594245+00:00", "meta": {"OBJECT_NAME": "METEOR-M2 3", "OBJECT_ID": "2023-091A", "EPOCH": "2025-12-22T14:22:00.355008", "MEAN_MOTION": 14.24027271, "ECCENTRICITY": 0.00033697, "INCLINATION": 98.6363, "RA_OF_ASC_NODE": 49.9652, "ARG_OF_PERICENTER": 338.7447, "MEAN_ANOMALY": 21.3591, "EPHEMERIS_TYPE": 0, "CLASSIFICATION_TYPE": "U", "NORAD_CAT_ID": 57166, "ELEMENT_SET_NO": 999, "REV_AT_EPOCH": 12938, "BSTAR": 2.9352616e-05, "MEAN_MOTION_DOT": 2.4e-07, "MEAN_MOTION_DDOT": 0}, "tle": {"line1": "1 57166U 23091A   25356.59861522  .00000024  00000+0  29353-4 0  9990", "line2": "2 57166  98.6363  49.9652 0003369 338.7447  21.3591 14.24027271129388"}}, "geometry": {"type": "Point", "coordinates": [52.241853301112116, -12.519686262463052]}}, {"type": "Feature", "properties": {"norad_id": 57399, "name": "TIANMU-1 07", "group": "weather", "lat": 33.52382222882488, "lon": 41.71002819192908, "alt_km": 475.8839833877282, "timestamp": "2025-12-22T22:44:20.594256+00:00", "meta": {"OBJECT_NAME": "TIANMU-1 07", "OBJECT_ID": "2023-101A", "EPOCH": "2025-12-22T19:26:55.089312", "MEAN_MOTION": 15.28206595, "ECCENTRICITY": 0.0005143, "INCLINATION": 97.2858, "RA_OF_ASC_NODE": 46.4381, "ARG_OF_PERICENTER": 56.1166, "MEAN_ANOMALY": 304.0563, "EPHEMERIS_TYPE": 0, "CLASSIFICATION_TYPE": "U", "NORAD_CAT_ID": 57399, "ELEMENT_SET_NO": 999, "REV_AT_EPOCH": 13469, "BSTAR": 0.00028435, "MEAN_MOTION_DOT": 7.747e-05, "MEAN_MOTION_DDOT": 0}, "tle": {"line1": "1 57399U 23101A   25356.81035983  .00007747  00000+0  28435-3 0  9997", "line2": "2 57399  97.2858  46.4381 0005143  56.1166 304.0563 15.28206595134695"}}, "geometry": {"type": "Point", "coordinates": [41.71002819192908, 33.52382222882488]}}, {"type": "Feature", "properties": {"norad_id": 57400, "name": "TIANMU-1 08", "group": "weather", "lat": -34.86674577876051, "lon": -138.74512072064655, "alt_km": 492.1535361373262, "timestamp": "2025-12-22T22:44:20.594266+00:00", "meta": {"OBJECT_NAME": "TIANMU-1 08", "OBJECT_ID": "2023-101B", "EPOCH": "2025-12-22T13:56:36.945888", "MEAN_MOTION": 15.28185238, "ECCENTRICITY": 0.00071226, "INCLINATION": 97.2848, "RA_OF_ASC_NODE": 46.0101, "ARG_OF_PERICENTER": 56.1989, "MEAN_ANOMALY": 303.9928, "EPHEMERIS_TYPE": 0, "CLASSIFICATION_TYPE": "U", "NORAD_CAT_ID": 57400, "ELEMENT_SET_NO": 999, "REV_AT_EPOCH": 13465, "BSTAR": 0.00027343958, "MEAN_MOTION_DOT": 7.444e-05, "MEAN_MOTION_DDOT": 0}, "tle": {"line1": "1 57400U 23101B   25356.58098317  .00007444  00000+0  27344-3 0  9996", "line2": "2 57400  97.2848  46.0101 0007122  56.1989 303.9928 15.28185238134654"}}, "geometry": {"type": "Point", "coordinates": [-138.74512072064655, -34.86674577876051]}}]}